{"type": "FeatureCollection", "features": [ {"type": "Feature", "properties": {"norad_id": 54234, "name": "NOAA 21 (JPSS-2)", "group": "weather", "lat": -19.940961427445654, "lon": 114.6457850833891, "alt_km": 833.12482396007, "timestamp": "2025-12-27T17:24:57.035981+00:00", "meta": {"OBJECT_NAME": "NOAA 21 (JPSS-2)", "OBJECT_ID": "2022-150A", "EPOCH": "2025-12-27T11:24:04.599072", "MEAN_MOTION": 14.19528306, "ECCENTRICITY": 0.0001526, "INCLINATION": 98.748, "RA_OF_ASC_NODE": 297.6007, "ARG_OF_PERICENTER": 6.784, "MEAN_ANOMALY": 353.3356, "EPHEMERIS_TYPE": 0, "CLASSIFICATION_TYPE": "U", "NORAD_CAT_ID": 54234, "ELEMENT_SET_NO": 999, "REV_AT_EPOCH": 16218, "BSTAR": 7.634e-05, "MEAN_MOTION_DOT": 1.17e-06, "MEAN_MOTION_DDOT": 0}, "tle": {"line1": "1 54234U 22150A   25361.47505323  .00000117  00000+0  76340-4 0  9996", "line2": "2 54234  98.7480 297.6007 0001526   6.7840 353.3356 14.19528306162181"}}, "geometry": {"type": "Point", "coordinates": [114.6457850833891, -19.940961427445654]}}, {"type": "Feature", "properties": {"norad_id": 54743, "name": "METEOSAT-12 (MTG-I1)", "group": "weather", "lat": -0.33959404900037915, "lon": -2.6237031925950047, "alt_km": 35786.1874993085, "timestamp": "2025-12-27T17:24:57.035999+00:00", "meta": {"OBJECT_NAME": "METEOSAT-12 (MTG-I1)", "OBJECT_ID": "2022-170C", "EPOCH": "2025-12-27T04:26:24.513216", "MEAN_MOTION": 1.00270944, "ECCENTRICITY": 0.0001758, "INCLINATION": 0.702, "RA_OF_ASC_NODE": 25.996, "ARG_OF_PERICENTER": 242.4895, "MEAN_ANOMALY": 253.7092, "EPHEMERIS_TYPE": 0, "CLASSIFICATION_TYPE": "U", "NORAD_CAT_ID": 54743, "ELEMENT_SET_NO": 999, "REV_AT_EPOCH": 1125, "BSTAR": 0, "MEAN_MOTION_DOT": 1.4e-07, "MEAN_MOTION_DDOT": 0}, "tle": {"line1": "1 54743U 22170C   25361.18500594  .00000014  00000+0  00000+0 0  9997", "line2": "2 54743   0.7020  25.9960 0001758 242.4895 253.7092  1.00270944 11254"}}, "geometry": {"type": "Point", "coordinates": [-2.6237031925950047, -0.33959404900037915]}}, {"type": "Feature", "properties": {"norad_id": 55973, "name": "TIANMU-1 03", "group": "weather", "lat": -15.862719775615579, "lon": -17.348537853049727, "alt_km": 449.46126378664394, "timestamp": "2025-12-27T17:24:57.036020+00:00", "meta": {"OBJECT_NAME": "TIANMU-1 03", "OBJECT_ID": "2023-039A", "EPOCH": "2025-12-27T11:53:40.114752", "MEAN_MOTION": 15.4136734, "ECCENTRICITY": 0.0003652, "INCLINATION": 97.5114, "RA_OF_ASC_NODE": 164.5636, "ARG_OF_PERICENTER": 17.5188, "MEAN_ANOMALY": 342.6184, "EPHEMERIS_TYPE": 0, "CLASSIFICATION_TYPE": "U", "NORAD_CAT_ID": 55973, "ELEMENT_SET_NO": 999, "REV_AT_EPOCH": 15433, "BSTAR": 0.00042443, "MEAN_MOTION_DOT": 0.00017649, "MEAN_MOTION_DDOT": 0}, "tle": {"line1": "1 55973U 23039A   25361.49560318  .00017649  00000+0  42443-3 0  9995", "line2": "2 55973  97.5114 164.5636 0003652  17.5188 342.6184 15.41367340154333"}}, "geometry": {"type": "Point", "coordinates": [-17.348537853049727, -15.862719775615579]}}, {"type": "Feature", "properties": {"norad_id": 55974, "name": "TIANMU-1 04", "group": "weather", "lat": -31.634446048616688, "lon": 168.64332957938376, "alt_km": 445.0248019999226, "timestamp": "2025-12-27T17:24:57.036090+00:00", "meta": {"OBJECT_NAME": "TIANMU-1 04", "OBJECT_ID": "2023-039B", "EPOCH": "2025-12-27T12:52:51.057984", "MEAN_MOTION": 15.41713526, "ECCENTRICITY": 0.0004231, "INCLINATION": 97.5045, "RA_OF_ASC_NODE": 163.791, "ARG_OF_PERICENTER": 10.4052, "MEAN_ANOMALY": 349.7281, "EPHEMERIS_TYPE": 0, "CLASSIFICATION_TYPE": "U", "NORAD_CAT_ID": 55974, "ELEMENT_SET_NO": 999, "REV_AT_EPOCH": 15434, "BSTAR": 0.00043503, "MEAN_MOTION_DOT": 0.00018304, "MEAN_MOTION_DDOT": 0}, "tle": {"line1": "1 55974U 23039B   25361.53670206  .00018304  00000+0  43503-3 0  9996", "line2": "2 55974  97.5045 163.7910 0004231  10.4052 349.7281 15.41713526154347"}}, "geometry": {"type": "Point", "coordinates": [168.64332957938376, -31.634446048616688]}}, {"type": "Feature", "properties": {"norad_id": 55975, "name": "TIANMU-1 05", "group": "weather", "lat": -20.54078688912242, "lon": 167.31114477107943, "alt_km": 446.1220770617647, "timestamp": "2025-12-27T17:24:57.036113+00:00", "meta": {"OBJECT_NAME": "TIANMU-1 05", "OBJECT_ID": "2023-039C", "EPOCH": "2025-12-27T12:49:52.286880", "MEAN_MOTION": 15.41324595, "ECCENTRICITY": 0.0003823, "INCLINATION": 97.5092, "RA_OF_ASC_NODE": 164.2817, "ARG_OF_PERICENTER": 37.6178, "MEAN_ANOMALY": 322.5335, "EPHEMERIS_TYPE": 0, "CLASSIFICATION_TYPE": "U", "NORAD_CAT_ID": 55975, "ELEMENT_SET_NO": 999, "REV_AT_EPOCH": 15432, "BSTAR": 0.00042633, "MEAN_MOTION_DOT": 0.00017704, "MEAN_MOTION_DDOT": 0}, "tle": {"line1": "1 55975U 23039C   25361.53463295  .00017704  00000+0  42633-3 0  9991", "line2": "2 55975  97.5092 164.2817 0003823  37.6178 322.5335 15.41324595154329"}}, "geometry": {"type": "Point", "coordinates": [167.31114477107943, -20.54078688912242]}}, {"type": "Feature", "properties": {"norad_id": 55976, "name": "TIANMU-1 06", "group": "weather", "lat": -40.78531587778834, "lon": 171.49121041033914, "alt_km": 446.6266918958636, "timestamp": "2025-12-27T17:24:57.036130+00:00", "meta": {"OBJECT_NAME": "TIANMU-1 06", "OBJECT_ID": "2023-039D", "EPOCH": "2025-12-27T12:55:16.294656", "MEAN_MOTION": 15.41764451, "ECCENTRICITY": 0.000407, "INCLINATION": 97.5103, "RA_OF_ASC_NODE": 164.763, "ARG_OF_PERICENTER": 31.0323, "MEAN_ANOMALY": 329.1163, "EPHEMERIS_TYPE": 0, "CLASSIFICATION_TYPE": "U", "NORAD_CAT_ID": 55976, "ELEMENT_SET_NO": 999, "REV_AT_EPOCH": 15434, "BSTAR": 0.00043372, "MEAN_MOTION_DOT": 0.00018279, "MEAN_MOTION_DDOT": 0}, "tle": {"line1": "1 55976U 23039D   25361.53838304  .00018279  00000+0  43372-3 0  9998", "line2": "2 55976  97.5103 164.7630 0004070  31.0323 329.1163 15.41764451154349"}}, "geometry": {"type": "Point", "coordinates": [171.49121041033914, -40.78531587778834]}}, {"type": "Feature", "properties": {"norad_id": 56232, "name": "FENGYUN 3G", "group": "weather", "lat": 49.457163119892144, "lon": -130.77246881175677, "alt_km": 405.35729145091864, "timestamp": "2025-12-27T17:24:57.036147+00:00", "meta": {"OBJECT_NAME": "FENGYUN 3G", "OBJECT_ID": "2023-055A", "EPOCH": "2025-12-27T12:25:30.828288", "MEAN_MOTION": 15.52206199, "ECCENTRICITY": 0.0003927, "INCLINATION": 49.9925, "RA_OF_ASC_NODE": 151.2053, "ARG_OF_PERICENTER": 299.9818, "MEAN_ANOMALY": 60.0759, "EPHEMERIS_TYPE": 0, "CLASSIFICATION_TYPE": "U", "NORAD_CAT_ID": 56232, "ELEMENT_SET_NO": 999, "REV_AT_EPOCH": 15332, "BSTAR": 0.00051746, "MEAN_MOTION_DOT": 0.00031667, "MEAN_MOTION_DDOT": 0}, "tle": {"line1": "1 56232U 23055A   25361.51771792  .00031667  00000+0  51746-3 0  9997", "line2": "2 56232  49.9925 151.2053 0003927 299.9818  60.0759 15.52206199153323"}}, "geometry": {"type": "Point", "coordinates": [-130.77246881175677, 49.457163119892144]}}, {"type": "Feature", "properties": {"norad_id": 57166, "name": "METEOR-M2 3", "group": "weather", "lat": -10.975628765627128, "lon": 56.69070762361574, "alt_km": 813.9992606295564, "timestamp": "2025-12-27T17:24:57.036163+00:00", "meta": {"OBJECT_NAME": "METEOR-M2 3", "OBJECT_ID": "2023-091A", "EPOCH": "2025-12-27T12:24:31.963968", "MEAN_MOTION": 14.24027861, "ECCENTRICITY": 0.0003144, "INCLINATION": 98.6356, "RA_OF_ASC_NODE": 54.7969, "ARG_OF_PERICENTER": 321.7952, "MEAN_ANOMALY": 38.3004, "EPHEMERIS_TYPE": 0, "CLASSIFICATION_TYPE": "U", "NORAD_CAT_ID": 57166, "ELEMENT_SET_NO": 999, "REV_AT_EPOCH": 13008, "BSTAR": 2.5739e-05, "MEAN_MOTION_DOT": 1.6e-07, "MEAN_MOTION_DDOT": 0}, "tle": {"line1": "1 57166U 23091A   25361.51703662  .00000016  00000+0  25739-4 0  9993", "line2": "2 57166  98.6356  54.7969 0003144 321.7952  38.3004 14.24027861130080"}}, "geometry": {"type": "Point", "coordinates": [56.69070762361574, -10.975628765627128]}}, {"type": "Feature", "properties": {"norad_id": 57399, "name": "TIANMU-1 07", "group": "weather", "lat": 24.849085271160813, "lon": 47.848104912998885, "alt_km": 477.1563609739351, "timestamp": "2025-12-27T17:24:57.036179+00:00", "meta": {"OBJECT_NAME": "TIANMU-1 07", "OBJECT_ID": "2023-101A", "EPOCH": "2025-12-27T12:35:32.636256", "MEAN_MOTION": 15.28285362, "ECCENTRICITY": 0.0004831, "INCLINATION": 97.2858, "RA_OF_ASC_NODE": 51.0483, "ARG_OF_PERICENTER": 43.0491, "MEAN_ANOMALY": 317.1126, "EPHEMERIS_TYPE": 0, "CLASSIFICATION_TYPE": "U", "NORAD_CAT_ID": 57399, "ELEMENT_SET_NO": 999, "REV_AT_EPOCH": 13541, "BSTAR": 0.00028985, "MEAN_MOTION_DOT": 7.917e-05, "MEAN_MOTION_DDOT": 0}, "tle": {"line1": "1 57399U 23101A   25361.52468329  .00007917  00000+0  28985-3 0  9994", "line2": "2 57399  97.2858  51.0483 0004831  43.0491 317.1126 15.28285362135419"}}, "geometry": {"type": "Point", "coordinates": [47.848104912998885, 24.849085271160813]}}, {"type": "Feature", "properties": {"norad_id": 57400, "name": "TIANMU-1 08", "group": "weather", "lat": -25.887299136854537, "lon": -132.51883231905708, "alt_km": 491.2362480948268, "timestamp": "2025-12-27T17:24:57.036198+00:00", "meta": {"OBJECT_NAME": "TIANMU-1 08", "OBJECT_ID": "2023-101B", "EPOCH": "2025-12-27T11:48:11.697120", "MEAN_MOTION": 15.28266187, "ECCENTRICITY": 0.0006776, "INCLINATION": 97.2847, "RA_OF_ASC_NODE": 50.8117, "ARG_OF_PERICENTER": 41.7598, "MEAN_ANOMALY": 318.4158, "EPHEMERIS_TYPE": 0, "CLASSIFICATION_TYPE": "U", "NORAD_CAT_ID": 57400, "ELEMENT_SET_NO": 999, "REV_AT_EPOCH": 13540, "BSTAR": 0.00030946, "MEAN_MOTION_DOT": 8.456e-05, "MEAN_MOTION_DDOT": 0}, "tle": {"line1": "1 57400U 23101B   25361.49180205  .00008456  00000+0  30946-3 0  9996", "line2": "2 57400  97.2847  50.8117 0006776  41.7598 318.4158 15.28266187135406"}}, "geometry": {"type": "Point", "coordinates": [-132.51883231905708, -25.887299136854537]}}]}